LEMUR-1                 
1 40044U 14033AL  26165.12753230  .00002003  00000+0  23471-3 0  9990
2 40044  97.7869 315.0007 0049745  88.4269 272.2644 14.85236346645017
LEMUR-2-GREENBERG       
1 42837U 17042N   26165.21176696  .00016050  00000+0  53319-3 0  9991
2 42837  97.3809 345.8505 0008807  24.5489 335.6170 15.31247013487930
LEMUR-2-ANDIS           
1 42838U 17042P   26165.24784959  .00020895  00000+0  62122-3 0  9996
2 42838  97.3668 346.0606 0008446  23.1042 337.0579 15.34740898488008
LEMUR-2-MONSON          
1 42839U 17042Q   26165.21409294  .00013449  00000+0  49529-3 0  9993
2 42839  97.4069 345.8298 0006490  17.0814 343.0642 15.27941251487718
LEMUR-2-FURIAUS         
1 42840U 17042R   26165.00727810  .00017604  00000+0  60450-3 0  9992
2 42840  97.3761 343.6098 0008324  78.7756 281.4420 15.30158223487722
LEMUR-2-PETERG          
1 42841U 17042S   26165.23015934  .00019916  00000+0  61099-3 0  9993
2 42841  97.3978 350.2561 0003478   9.2107 350.9199 15.33784891487988
LEMUR-2-DEMBITZ         
1 42842U 17042T   26165.22343179  .00015340  00000+0  52652-3 0  9990
2 42842  97.3816 346.8458 0007022  38.9176 321.2569 15.30213255487890
LEMUR-2-ZACHARY         
1 42845U 17042W   26165.09150550  .00045647  00000+0  81199-3 0  9998
2 42845  97.3594 356.6634 0003123  45.1901 314.9604 15.50020649488722
LEMUR-2-AMANDA-SVANTE   
1 48269U 21034B   26165.16162597  .00034523  00000+0  10438-2 0  9990
2 48269  97.5769 243.3672 0001927 217.8791 142.2316 15.34138619280599
LEMUR-2-SPECIAL-K       
1 48273U 21034F   26165.20641983  .00150405  00000+0  15892-2 0  9998
2 48273  97.5656 251.8492 0003881 229.6783 130.4137 15.63693304281226
LEMUR-2-EMBRIONOVIS     
1 56970U 23084AQ  26165.14287434  .00013844  00000+0  37833-3 0  9993
2 56970  97.6281 309.2254 0007911 332.2744  27.8077 15.37482062167216
LEMUR-2-DEVERILL-M-T    
1 57391U 23100F   26164.85542923  .00026632  00000+0  67709-3 0  9998
2 57391  99.4475 202.6512 0006653  61.0244 299.1662 15.39599682160739
LEMUR-2-BASS            
1 58259U 23174D   26165.22720917  .00017759  00000+0  40408-3 0  9993
2 58259  97.3853 249.8978 0007483 171.8007 188.3365 15.43007025144908
LEMUR-2-JK0903EM1407    
1 58336U 23174CJ  26165.24163825  .00026461  00000+0  44756-3 0  9990
2 58336  97.3927 255.6288 0005816 128.0903 232.0874 15.51545398145274
LEMUR-2-MJR092620       
1 58340U 23174CN  26165.24391557  .00018996  00000+0  40704-3 0  9993
2 58340  97.3983 255.2186 0007044 126.2487 233.9413 15.44781393145195
LEMUR-2-NIMBUS2000      
1 58899U 24022A   26165.28469632  .00016820  00000+0  42375-3 0  9999
2 58899  97.4109  15.2503 0010247 124.8244 235.3967 15.39914250131825
LEMUR-2-VALHALLA        
1 58900U 24022B   26165.15032037  .00016511  00000+0  42035-3 0  9993
2 58900  97.4107  15.1066 0010780 121.5542 238.6758 15.39591610131809
LEMUR-2-OBA-NI-JESU     
1 58902U 24022D   26164.26942669  .07840474  25257-5  90464-3 0  9993
2 58902  97.3603  29.4721 0009182 248.5343 111.4976 16.36778297132706
LEMUR-2-CAEL            
1 58903U 24022E   26165.09776589  .00018056  00000+0  44052-3 0  9993
2 58903  97.4090  15.9838 0009270 106.5723 253.6542 15.40885893131869
LEMUR-2-JOHNNYTRUONG    
1 59146U 24043BA  26164.94353394  .00039150  00000+0  47987-3 0  9992
2 59146  97.5365 316.4464 0004702 186.4415 173.6782 15.60243743127539
LEMUR-2-TOMATOKECHUP    
1 60471U 24149D   26165.17575692  .00012135  00000+0  34861-3 0  9996
2 60471  97.3808 247.2145 0001147 181.7655 178.3585 15.35976496101707
LEMUR-2-STELLA          
1 60533U 24149BT  26165.16946749  .00012144  00000+0  71531-3 0  9994
2 60533  97.6746 247.6108 0001643  94.5801 265.5617 15.11753702100046
LEMUR-2-MARHISYAM       
1 60536U 24149BW  26165.28111544  .00010801  00000+0  64631-3 0  9998
2 60536  97.6890 248.1690 0003428 121.3305 238.8261 15.11211494100047
LEMUR-2-AHMED-ASRAR     
1 60576U 24149DN  26165.18574329  .00013012  00000+0  74724-3 0  9996
2 60576  97.7012 250.1543 0002009  47.8289 312.3111 15.12653994100111
LEMUR-2-LLOYD           
1 60577U 24149DP  26165.19131956  .00010346  00000+0  65452-3 0  9998
2 60577  97.6751 246.3187 0004700 147.8900 212.2616 15.09186796 99946
LEMUR-2-SQUIRRELCOMM    
1 60578U 24149DQ  26165.20136908  .00005479  00000+0  36868-3 0  9993
2 60578  97.6717 246.1219 0006734  70.6724 289.5231 15.07122230 99951
LEMUR-2-SIERRINI        
1 60579U 24149DR  26165.17158440  .00012055  00000+0  72698-3 0  9994
2 60579  97.6852 247.7498 0005598 174.4250 185.7043 15.10892403100009
LEMUR-2-WILSON          
1 62694U 25009CP  26165.21726934  .00002321  00000+0  21662-3 0  9994
2 62694  97.7024 243.7337 0004279  64.1423 296.0239 14.95152538 76916
LEMUR-2-STAR-FOX        
1 62696U 25009CR  26165.16246929  .00008097  00000+0  61451-3 0  9997
2 62696  97.6960 246.7924 0003559 118.7505 241.4077 15.02464841 77106
